NORAD_CAT_ID,OBJECT_NAME,OBJECT_TYPE,EPOCH,MEAN_MOTION,ECCENTRICITY,INCLINATION,RA_OF_ASC_NODE,ARG_OF_PERICENTER,MEAN_ANOMALY,BSTAR,MEAN_MOTION_DOT,MEAN_MOTION_DDOT,TLE_LINE0,TLE_LINE1,TLE_LINE2,SEMIMAJOR_AXIS,PERIOD,APOGEE,PERIGEE,DECAYED
53012.0,STARLINK-4271,PAYLOAD,2024-01-09 01:46:03,15.08836715,0.0001611,53.2178,43.3345,107.1383,252.9786,8.045e-05,9.92e-06,0.0,0 STARLINK-4271,1 53012U 22076AC  24009.07365378  .00000992  00000-0  80450-4 0  9993,2 53012  53.2178  43.3345 0001611 107.1383 252.9786 15.08836715 83962,6917.89,95.438,540.87,538.641,0.0
53012.0,STARLINK-4271,PAYLOAD,2024-01-09 09:42:59,15.08838647,0.0001513,53.2175,41.8473,98.3092,261.8072,8.5881e-05,1.079e-05,0.0,0 STARLINK-4271,1 53012U 22076AC  24009.40485267  .00001079  00000-0  85881-4 0  9990,2 53012  53.2175  41.8473 0001513  98.3092 261.8072 15.08838647 83540,6917.885,95.438,540.796,538.703,0.0
53012.0,STARLINK-4271,PAYLOAD,2024-01-10 07:58:23,15.08838349,0.0001592,53.2169,37.6836,102.8161,257.3009,2.4957e-05,1.09e-06,0.0,0 STARLINK-4271,1 53012U 22076AC  24010.33221519  .00000109  00000-0  24957-4 0  9992,2 53012  53.2169  37.6836 0001592 102.8161 257.3009 15.08838349 84151,6917.885,95.438,540.852,538.649,0.0
53012.0,STARLINK-4271,PAYLOAD,2024-01-11 10:59:55,15.08851212,0.0001534,53.2161,32.6271,86.0601,274.0566,0.0001177,1.586e-05,0.0,0 STARLINK-4271,1 53012U 22076AC  24011.45828421  .00001586  00000-0  11770-3 0  9999,2 53012  53.2161  32.6271 0001534  86.0601 274.0566 15.08851212 84326,6917.846,95.437,540.772,538.65,0.0
53012.0,STARLINK-4271,PAYLOAD,2024-01-12 01:18:24,15.08829721,0.0002055,53.217,29.9444,125.6113,234.507,0.00011931,1.611e-05,0.0,0 STARLINK-4271,1 53012U 22076AC  24012.05445530  .00001611  00000-0  11931-3 0  9990,2 53012  53.2170  29.9444 0002055 125.6113 234.5070 15.08829721 84415,6917.912,95.438,541.198,538.355,0.0
53012.0,STARLINK-4271,PAYLOAD,2024-01-12 07:39:57,15.08838016,0.0001668,53.2176,28.7621,108.5849,251.5324,5.3751e-05,5.67e-06,0.0,0 STARLINK-4271,1 53012U 22076AC  24012.31941520  .00000567  00000-0  53751-4 0  9995,2 53012  53.2176  28.7621 0001668 108.5849 251.5324 15.08838016 83989,6917.886,95.438,540.905,538.598,0.0
53012.0,STARLINK-4271,PAYLOAD,2024-01-13 04:19:58,15.08836685,0.0001519,53.217,24.8983,90.3921,269.7245,-1.5786e-05,-5.39e-06,0.0,0 STARLINK-4271,1 53012U 22076AC  24013.18054165 -.00000539  00000-0 -15786-4 0  9998,2 53012  53.2170  24.8983 0001519  90.3921 269.7245 15.08836685 84585,6917.891,95.438,540.806,538.705,0.0
53012.0,STARLINK-4271,PAYLOAD,2024-01-13 07:30:44,15.08838772,0.0001658,53.2172,24.3034,104.3686,255.749,9.7959e-06,-1.32e-06,0.0,0 STARLINK-4271,1 53012U 22076AC  24013.31301953 -.00000132  00000-0  97959-5 0  9994,2 53012  53.2172  24.3034 0001658 104.3686 255.7490 15.08838772 84134,6917.884,95.438,540.896,538.602,0.0
53012.0,STARLINK-4271,PAYLOAD,2024-01-14 10:32:17,15.08843566,0.0001703,53.2181,19.2435,118.554,241.5623,0.00010887,1.445e-05,0.0,0 STARLINK-4271,1 53012U 22076AC  24014.43909605  .00001445  00000-0  10887-3 0  9996,2 53012  53.2181  19.2435 0001703 118.5540 241.5623 15.08843566 84777,6917.869,95.437,540.913,538.556,0.0
53012.0,STARLINK-4271,PAYLOAD,2024-01-15 04:01:32,15.08841581,0.0001541,53.2167,15.9709,82.3922,277.7245,0.000151,2.116e-05,0.0,0 STARLINK-4271,1 53012U 22076AC  24015.16774182  .00002116  00000-0  15100-3 0  9996,2 53012  53.2167  15.9709 0001541  82.3922 277.7245 15.08841581 84888,6917.876,95.437,540.807,538.675,0.0
53012.0,STARLINK-4271,PAYLOAD,2024-01-15 05:36:55,15.08842995,0.0001543,53.2167,15.6734,88.7769,271.34,0.00017524,2.502e-05,0.0,0 STARLINK-4271,1 53012U 22076AC  24015.23398000  .00002502  00000-0  17524-3 0  9996,2 53012  53.2167  15.6734 0001543  88.7769 271.3400 15.08842995 84427,6917.871,95.437,540.804,538.669,0.0
53012.0,STARLINK-4271,PAYLOAD,2024-01-16 08:38:29,15.08840925,0.0001594,53.2172,10.6211,95.998,264.1194,5.9983e-05,6.67e-06,0.0,0 STARLINK-4271,1 53012U 22076AC  24016.36006553  .00000667  00000-0  59983-4 0  9996,2 53012  53.2172  10.6211 0001594  95.9980 264.1194 15.08840925 85061,6917.878,95.437,540.845,538.64,0.0
53012.0,STARLINK-4271,PAYLOAD,2024-01-17 05:18:30,15.08846434,0.0001572,53.2161,6.7553,99.4338,260.6832,0.00010171,1.331e-05,0.0,0 STARLINK-4271,1 53012U 22076AC  24017.22118162  .00001331  00000-0  10171-3 0  9996,2 53012  53.2161   6.7553 0001572  99.4338 260.6832 15.08846434 84729,6917.861,95.437,540.813,538.638,0.0
53012.0,STARLINK-4271,PAYLOAD,2024-01-18 03:33:54,15.08840204,0.0001576,53.2174,2.5937,109.8032,250.3131,4.0596e-05,3.58e-06,0.0,0 STARLINK-4271,1 53012U 22076AC  24018.14854602  .00000358  00000-0  40596-4 0  9997,2 53012  53.2174   2.5937 0001576 109.8032 250.3131 15.08840204 85339,6917.88,95.438,540.835,538.655,0.0
53012.0,STARLINK-4271,PAYLOAD,2024-01-18 05:09:17,15.08843887,0.0001553,53.2176,2.2958,90.3943,269.7227,7.9959e-05,9.85e-06,0.0,0 STARLINK-4271,1 53012U 22076AC  24018.21478613  .00000985  00000-0  79959-4 0  9990,2 53012  53.2176   2.2958 0001553  90.3943 269.7227 15.08843887 84879,6917.869,95.437,540.808,538.659,0.0
53012.0,STARLINK-4271,PAYLOAD,2024-01-18 22:38:31,15.08844335,0.0001522,53.2175,359.0265,96.4152,263.7013,6.5948e-05,7.62e-06,0.0,0 STARLINK-4271,1 53012U 22076AC  24018.94342564  .00000762  00000-0  65948-4 0  9991,2 53012  53.2175 359.0265 0001522  96.4152 263.7013 15.08844335 84985,6917.867,95.437,540.785,538.679,0.0
53012.0,STARLINK-4271,PAYLOAD,2024-01-19 05:00:04,15.08850519,0.0001586,53.2165,357.8363,94.2212,265.8961,0.00018299,2.626e-05,0.0,0 STARLINK-4271,1 53012U 22076AC  24019.20838245  .00002626  00000-0  18299-3 0  9994,2 53012  53.2165 357.8363 0001586  94.2212 265.8961 15.08850519 85495,6917.848,95.437,540.81,538.616,0.0
53012.0,STARLINK-4271,PAYLOAD,2024-01-20 03:15:28,15.08845141,0.0001479,53.2165,353.6739,92.5821,267.5341,0.00013781,1.906e-05,0.0,0 STARLINK-4271,1 53012U 22076AC  24020.13574474  .00001906  00000-0  13781-3 0  9990,2 53012  53.2165 353.6739 0001479  92.5821 267.5341 15.08845141 85636,6917.865,95.437,540.753,538.707,0.0
53012.0,STARLINK-4271,PAYLOAD,2024-01-20 08:01:37,15.08848429,0.0001516,53.216,352.7809,96.5905,263.5259,0.00018436,2.648e-05,0.0,0 STARLINK-4271,1 53012U 22076AC  24020.33446251  .00002648  00000-0  18436-3 0  9999,2 53012  53.2160 352.7809 0001516  96.5905 263.5259 15.08848429 85195,6917.855,95.437,540.768,538.671,0.0
53012.0,STARLINK-4271,PAYLOAD,2024-01-20 22:20:06,15.08839277,0.0001829,53.2193,350.1082,94.5612,265.5589,-8.5097e-06,-4.24e-06,0.0,0 STARLINK-4271,1 53012U 22076AC  24020.93062760 -.00000424  00000-0 -85097-5 0  9995,2 53012  53.2193 350.1082 0001829  94.5612 265.5589 15.08839277 85285,6917.883,95.438,541.013,538.482,0.0
53012.0,STARLINK-4271,PAYLOAD,2024-01-21 03:06:15,15.08838533,0.0001542,53.2166,349.2122,89.87,270.2469,-1.7844e-05,-5.72e-06,0.0,0 STARLINK-4271,1 53012U 22076AC  24021.12934840 -.00000572  00000-0 -17844-4 0  9992,2 53012  53.2166 349.2122 0001542  89.8700 270.2469 15.08838533 85785,6917.885,95.438,540.817,538.683,0.0
53012.0,STARLINK-4271,PAYLOAD,2024-01-21 22:10:53,15.08840671,0.0001436,53.217,345.6445,87.5472,272.5684,7.6182e-05,9.25e-06,0.0,0 STARLINK-4271,1 53012U 22076AC  24021.92422887  .00000925  00000-0  76182-4 0  9993,2 53012  53.2170 345.6445 0001436  87.5472 272.5684 15.08840671 85433,6917.878,95.438,540.737,538.75,0.0
53012.0,STARLINK-4271,PAYLOAD,2024-01-22 06:07:48,15.08854605,0.0001459,53.2171,344.1582,85.8212,274.2947,0.00028416,4.239e-05,0.0,0 STARLINK-4271,1 53012U 22076AC  24022.25542220  .00004239  00000-0  28416-3 0  9992,2 53012  53.2171 344.1582 0001459  85.8212 274.2947 15.08854605 85958,6917.836,95.437,540.71,538.691,0.0
53012.0,STARLINK-4271,PAYLOAD,2024-01-23 02:47:49,15.08841911,0.0001424,53.2169,340.2926,95.0627,265.0528,0.00010126,1.324e-05,0.0,0 STARLINK-4271,1 53012U 22076AC  24023.11654789  .00001324  00000-0  10126-3 0  9993,2 53012  53.2169 340.2926 0001424  95.0627 265.0528 15.08841911 86083,6917.875,95.437,540.725,538.754,0.0
53012.0,STARLINK-4271,PAYLOAD,2024-01-23 04:23:12,15.08846516,0.0001458,53.2174,339.9964,77.1173,282.9982,0.0002125,3.096e-05,0.0,0 STARLINK-4271,1 53012U 22076AC  24023.18278779  .00003096  00000-0  21250-3 0  9999,2 53012  53.2174 339.9964 0001458  77.1173 282.9982 15.08846516 85627,6917.86,95.437,540.734,538.717,0.0
53012.0,STARLINK-4271,PAYLOAD,2024-01-24 04:13:59,15.08851183,0.0001785,53.2186,335.5365,70.9797,289.1388,0.0003198,4.807e-05,0.0,0 STARLINK-4271,1 53012U 22076AC  24024.17638604  .00004807  00000-0  31980-3 0  9998,2 53012  53.2186 335.5365 0001785  70.9797 289.1388 15.08851183 86247,6917.846,95.437,540.946,538.476,0.0
53012.0,STARLINK-4271,PAYLOAD,2024-01-25 04:04:47,15.08840641,0.0001521,53.2175,331.0731,77.729,282.3872,0.00012247,1.662e-05,0.0,0 STARLINK-4271,1 53012U 22076AC  24025.16999207  .00001662  00000-0  12247-3 0  9998,2 53012  53.2175 331.0731 0001521  77.7290 282.3872 15.08840641 86390,6917.878,95.438,540.796,538.691,0.0
53012.0,STARLINK-4271,PAYLOAD,2024-01-26 02:20:11,15.08845504,0.000143,53.217,326.9111,92.0777,268.0378,0.00024702,3.646e-05,0.0,0 STARLINK-4271,1 53012U 22076AC  24026.09735318  .00003646  00000-0  24702-3 0  9995,2 53012  53.2170 326.9111 0001430  92.0777 268.0378 15.08845504 86068,6917.864,95.437,540.718,538.739,0.0
53012.0,STARLINK-4271,PAYLOAD,2024-01-27 02:10:58,15.08845934,0.0001482,53.2176,322.4502,86.1822,273.9339,0.00025754,3.814e-05,0.0,0 STARLINK-4271,1 53012U 22076AC  24027.09095442  .00003814  00000-0  25754-3 0  9998,2 53012  53.2176 322.4502 0001482  86.1822 273.9339 15.08845934 86688,6917.862,95.437,540.752,538.702,0.0
53012.0,STARLINK-4271,PAYLOAD,2024-01-27 19:40:12,15.08844715,0.0001713,53.2191,319.1817,103.9457,256.1725,6.7358e-05,7.84e-06,0.0,0 STARLINK-4271,1 53012U 22076AC  24027.81959403  .00000784  00000-0  67358-4 0  9994,2 53012  53.2191 319.1817 0001713 103.9457 256.1725 15.08844715 86325,6917.866,95.437,540.916,538.546,0.0
